NORAD_CAT_ID,OBJECT_NAME,OBJECT_TYPE,EPOCH,MEAN_MOTION,ECCENTRICITY,INCLINATION,RA_OF_ASC_NODE,ARG_OF_PERICENTER,MEAN_ANOMALY,BSTAR,MEAN_MOTION_DOT,MEAN_MOTION_DDOT,TLE_LINE0,TLE_LINE1,TLE_LINE2,SEMIMAJOR_AXIS,PERIOD,APOGEE,PERIGEE,DECAYED
51714.0,STARLINK-3528,PAYLOAD,2022-12-19 22:03:53,15.08842255,0.00022,53.2146,207.3655,48.1673,311.9507,0.00017057,2.428e-05,0.0,0 STARLINK-3528,1 51714U 22016A   22353.91937195  .00002428  00000-0  17057-3 0  9997,2 51714  53.2146 207.3655 0002200  48.1673 311.9507 15.08842255 46985,6917.873000000001,95.437,541.26,538.217,0.0
51714.0,STARLINK-3528,PAYLOAD,2022-12-20 13:57:44,15.08853003,0.0002204,53.2142,204.3919,48.2608,311.8572,0.00032148,4.834e-05,0.0,0 STARLINK-3528,1 51714U 22016A   22354.58176676  .00004834  00000-0  32148-3 0  9991,2 51714  53.2142 204.3919 0002204  48.2608 311.8572 15.08853003 46023,6917.840999999999,95.437,541.23,538.181,0.0
51714.0,STARLINK-3528,PAYLOAD,2022-12-21 13:48:31,15.08851024,0.0002262,53.214,199.932,47.4061,312.7122,0.00025903,3.838e-05,0.0,0 STARLINK-3528,1 51714U 22016A   22355.57536468  .00003838  00000-0  25903-3 0  9994,2 51714  53.2140 199.9320 0002262  47.4061 312.7122 15.08851024 47230,6917.847,95.437,541.2769999999998,538.1469999999998,0.0
51714.0,STARLINK-3528,PAYLOAD,2022-12-21 23:20:50,15.08844831,0.0002351,53.214,198.1479,45.2676,314.8508,0.0001395,1.933e-05,0.0,0 STARLINK-3528,1 51714U 22016A   22355.97280530  .00001933  00000-0  13950-3 0  9997,2 51714  53.2140 198.1479 0002351  45.2676 314.8508 15.08844831 47298,6917.866,95.437,541.357,538.104,0.0
51714.0,STARLINK-3528,PAYLOAD,2022-12-22 12:03:55,15.08837479,0.0002404,53.2142,195.7689,47.0949,313.0245,-7.2951e-05,-1.449e-05,0.0,0 STARLINK-3528,1 51714U 22016A   22356.50273129 -.00001449  00000-0 -72951-4 0  9994,2 51714  53.2142 195.7689 0002404  47.0949 313.0245 15.08837479 46319,6917.888000000001,95.438,541.4159999999998,538.09,0.0
51714.0,STARLINK-3528,PAYLOAD,2022-12-22 13:39:19,15.08837485,0.0002326,53.2143,195.4712,47.4677,312.6511,-6.8187e-05,-1.373e-05,0.0,0 STARLINK-3528,1 51714U 22016A   22356.56897052 -.00001373  00000-0 -68187-4 0  9999,2 51714  53.2143 195.4712 0002326  47.4677 312.6511 15.08837485 47385,6917.888000000001,95.438,541.362,538.144,0.0
51714.0,STARLINK-3528,PAYLOAD,2022-12-22 16:50:05,15.08839045,0.0002305,53.2154,194.8764,48.4729,311.6461,-3.6977e-05,-8.77e-06,0.0,0 STARLINK-3528,1 51714U 22016A   22356.70145248 -.00000877  00000-0 -36977-4 0  9998,2 51714  53.2154 194.8764 0002305  48.4729 311.6461 15.08839045 46345,6917.8830000000025,95.438,541.3430000000002,538.154,0.0
51714.0,STARLINK-3528,PAYLOAD,2022-12-22 21:36:14,15.08841765,0.0002337,53.2154,193.9841,52.8251,307.2954,-3.1123e-05,-7.84e-06,0.0,0 STARLINK-3528,1 51714U 22016A   22356.90017059 -.00000784  00000-0 -31123-4 0  9993,2 51714  53.2154 193.9841 0002337  52.8251 307.2954 15.08841765 46378,6917.875,95.437,541.357,538.123,0.0
51714.0,STARLINK-3528,PAYLOAD,2022-12-23 19:51:38,15.08841612,0.0002279,53.2152,189.8207,49.4672,310.6518,5.3669e-05,5.66e-06,0.0,0 STARLINK-3528,1 51714U 22016A   22357.82752969  .00000566  00000-0  53669-4 0  9996,2 51714  53.2152 189.8207 0002279  49.4672 310.6518 15.08841612 46511,6917.875,95.437,541.317,538.164,0.0
51714.0,STARLINK-3528,PAYLOAD,2022-12-23 23:02:24,15.08842297,0.00023,53.2151,189.2259,49.6742,310.4451,6.1281e-05,6.87e-06,0.0,0 STARLINK-3528,1 51714U 22016A   22357.96000925  .00000687  00000-0  61281-4 0  9992,2 51714  53.2151 189.2259 0002300  49.6742 310.4451 15.08842297 47599,6917.873000000001,95.437,541.3290000000002,538.1469999999998,0.0
51714.0,STARLINK-3528,PAYLOAD,2022-12-24 11:45:29,15.08840781,0.0002273,53.2151,186.8469,49.5837,310.5353,0.00016749,2.378e-05,0.0,0 STARLINK-3528,1 51714U 22016A   22358.48992877  .00002378  00000-0  16749-3 0  9993,2 51714  53.2151 186.8469 0002273  49.5837 310.5353 15.08840781 46618,6917.878000000002,95.438,541.315,538.1709999999998,0.0
51714.0,STARLINK-3528,PAYLOAD,2022-12-24 21:17:48,15.08835609,0.0002274,53.214,185.0627,48.6711,311.4476,2.4601e-05,1.03e-06,0.0,0 STARLINK-3528,1 51714U 22016A   22358.88737242  .00000103  00000-0  24601-4 0  9991,2 51714  53.2140 185.0627 0002274  48.6711 311.4476 15.08835609 47738,6917.894,95.438,541.332,538.186,0.0
51714.0,STARLINK-3528,PAYLOAD,2022-12-25 05:14:44,15.08833589,0.0002278,53.2138,183.5761,49.4459,310.6731,-4.119e-05,-9.44e-06,0.0,0 STARLINK-3528,1 51714U 22016A   22359.21857394 -.00000944  00000-0 -41190-4 0  9997,2 51714  53.2138 183.5761 0002278  49.4459 310.6731 15.08833589 46727,6917.9,95.438,541.341,538.189,0.0
51714.0,STARLINK-3528,PAYLOAD,2022-12-25 21:08:36,15.0883462,0.0002307,53.214,180.6022,49.7147,310.4047,-3.8859e-05,-9.07e-06,0.0,0 STARLINK-3528,1 51714U 22016A   22359.88097509 -.00000907  00000-0 -38859-4 0  9991,2 51714  53.2140 180.6022 0002307  49.7147 310.4047 15.08834620 46824,6917.897,95.438,541.3580000000002,538.1659999999998,0.0
51714.0,STARLINK-3528,PAYLOAD,2022-12-26 13:02:27,15.08838579,0.000225,53.2157,177.6286,51.2045,308.9147,5.629e-05,6.08e-06,0.0,0 STARLINK-3528,1 51714U 22016A   22360.54337865  .00000608  00000-0  56290-4 0  9993,2 51714  53.2157 177.6286 0002250  51.2045 308.9147 15.08838579 46923,6917.885,95.438,541.306,538.193,0.0
51714.0,STARLINK-3528,PAYLOAD,2022-12-26 20:59:23,15.08843598,0.0002297,53.2157,176.1418,48.4685,311.6504,6.7579e-05,7.87e-06,0.0,0 STARLINK-3528,1 51714U 22016A   22360.87457604  .00000787  00000-0  67579-4 0  9993,2 51714  53.2157 176.1418 0002297  48.4685 311.6504 15.08843598 48032,6917.869000000002,95.437,541.323,538.145,0.0
51714.0,STARLINK-3528,PAYLOAD,2022-12-27 11:17:51,15.08842572,0.0002336,53.2148,173.4652,52.1595,307.9609,0.00021788,3.181e-05,0.0,0 STARLINK-3528,1 51714U 22016A   22361.47073684  .00003181  00000-0  21788-3 0  9994,2 51714  53.2148 173.4652 0002336  52.1595 307.9609 15.08842572 47065,6917.873000000001,95.437,541.354,538.122,0.0
51714.0,STARLINK-3528,PAYLOAD,2022-12-27 17:39:24,15.08846254,0.0002347,53.2147,172.2755,52.6107,307.5098,0.00025811,3.823e-05,0.0,0 STARLINK-3528,1 51714U 22016A   22361.73569533  .00003823  00000-0  25811-3 0  9990,2 51714  53.2147 172.2755 0002347  52.6107 307.5098 15.08846254 47105,6917.861,95.437,541.35,538.1030000000002,0.0
51714.0,STARLINK-3528,PAYLOAD,2022-12-28 11:08:38,15.08849041,0.0002387,53.2145,169.0044,53.6646,306.4566,0.00022071,3.227e-05,0.0,0 STARLINK-3528,1 51714U 22016A   22362.46433227  .00003227  00000-0  22071-3 0  9994,2 51714  53.2145 169.0044 0002387  53.6646 306.4566 15.08849041 47218,6917.853,95.437,541.369,538.066,0.0
51714.0,STARLINK-3528,PAYLOAD,2022-12-28 14:19:24,15.08846166,0.000239,53.2143,168.4094,53.5285,306.5927,0.00015865,2.238e-05,0.0,0 STARLINK-3528,1 51714U 22016A   22362.59681328  .00002238  00000-0  15865-3 0  9999,2 51714  53.2143 168.4094 0002390  53.5285 306.5927 15.08846166 48292,6917.861999999999,95.437,541.38,538.073,0.0
51714.0,STARLINK-3528,PAYLOAD,2022-12-29 10:59:26,15.08833313,0.0002109999999999,53.2155,164.5428,56.3972,303.7221,-2.2645e-05,-6.49e-06,0.0,0 STARLINK-3528,1 51714U 22016A   22363.45794211 -.00000649  00000-0 -22645-4 0  9992,2 51714  53.2155 164.5428 0002110  56.3972 303.7221 15.08833313 48428,6917.901,95.438,541.226,538.306,0.0
51714.0,STARLINK-3528,PAYLOAD,2022-12-30 12:25:35,15.08838213,0.000225,53.2151,159.7855,56.4014,303.7193,0.00010264,1.346e-05,0.0,0 STARLINK-3528,1 51714U 22016A   22364.51777592  .00001346  00000-0  10264-3 0  9999,2 51714  53.2151 159.7855 0002250  56.4014 303.7193 15.08838213 48586,6917.886,95.438,541.307,538.194,0.0
51714.0,STARLINK-3528,PAYLOAD,2022-12-31 10:40:59,15.08846716,0.0002299999999999,53.2157,155.623,53.4246,306.6958,0.00026838,3.986e-05,0.0,0 STARLINK-3528,1 51714U 22016A   22365.44512741  .00003986  00000-0  26838-3 0  9991,2 51714  53.2157 155.6230 0002300  53.4246 306.6958 15.08846716 48728,6917.86,95.437,541.316,538.134,0.0
51714.0,STARLINK-3528,PAYLOAD,2022-12-31 17:02:32,15.08847325,0.0002339,53.215,154.4334,52.8661,307.2544,0.00032739,4.927e-05,0.0,0 STARLINK-3528,1 51714U 22016A   22365.71009350  .00004927  00000-0  32739-3 0  9991,2 51714  53.2150 154.4334 0002339  52.8661 307.2544 15.08847325 47701,6917.858,95.437,541.341,538.105,0.0
51714.0,STARLINK-3528,PAYLOAD,2023-01-01 10:31:45,15.08852864,0.0002376999999999,53.215,151.1629,52.187,307.9337,0.00011521,1.546e-05,0.0,0 STARLINK-3528,1 51714U 22016A   23001.43872627  .00001546  00000-0  11521-3 0  9993,2 51714  53.2150 151.1629 0002377  52.1870 307.9337 15.08852864 47812,6917.840999999999,95.437,541.35,538.062,0.0
51714.0,STARLINK-3528,PAYLOAD,2023-01-01 16:53:19,15.08832199,0.0002263,53.2146,149.9734,52.4463,307.6734,-0.0002386,-4.083e-05,0.0,0 STARLINK-3528,1 51714U 22016A   23001.70369549 -.00004083  00000-0 -23860-3 0  9997,2 51714  53.2146 149.9734 0002263  52.4463 307.6734 15.08832199 47855,6917.904,95.438,541.335,538.2040000000002,0.0
51714.0,STARLINK-3528,PAYLOAD,2023-01-02 02:25:37,15.08842866,0.0002234999999999,53.2154,148.1888,52.4632,307.6563,-2.2405e-05,-6.45e-06,0.0,0 STARLINK-3528,1 51714U 22016A   23002.10113211 -.00000645  00000-0 -22405-4 0  9990,2 51714  53.2154 148.1888 0002235  52.4632 307.6563 15.08842866 48978,6917.871999999999,95.437,541.283,538.19,0.0
51714.0,STARLINK-3528,PAYLOAD,2023-01-02 05:36:23,15.088634900000002,0.0002126999999999,53.2149,147.5943,45.8656,314.2511,0.00027673,4.122e-05,0.0,0 STARLINK-3528,1 51714U 22016A   23002.23360077  .00004122  00000-0  27673-3 0  9991,2 51714  53.2149 147.5943 0002127  45.8656 314.2511 15.08863490 48994,6917.809,95.436,541.145,538.202,0.0
51714.0,STARLINK-3528,PAYLOAD,2023-01-02 11:57:56,15.08843852,0.0002077,53.2165,146.4042,46.37300000000001,313.7434,8.4635e-05,1.059e-05,0.0,0 STARLINK-3528,1 51714U 22016A   23002.49857018  .00001059  00000-0  84635-4 0  9993,2 51714  53.2165 146.4042 0002077  46.3730 313.7434 15.08843852 49037,6917.869000000002,95.437,541.17,538.297,0.0
